0 FENGYUN 1C DEB
1 37438U 99025EHG 13283.76442396  .00000565  00000-0  36038-3 0  1157
2 37438 099.0619 276.1132 0033693 140.0759 220.2912 14.07476395281862
0 FENGYUN 1C DEB
1 37438U 99025EHG 13287.17666078  .00001054  00000-0  64944-3 0  1174
2 37438 099.0591 279.5317 0032334 130.5618 229.8760 14.07487142282344
0 FENGYUN 1C DEB
1 37438U 99025EHG 13289.80690114  .00001061  00000-0  65351-3 0  1186
2 37438 099.0596 282.1690 0032418 123.4074 237.0229 14.07493021282718
0 FENGYUN 1C DEB
1 37438U 99025EHG 13291.22865129  .00001045  00000-0  64393-3 0  1193
2 37438 099.0596 283.5938 0032427 119.2814 241.1545 14.07495869282914
0 FENGYUN 1C DEB
1 37438U 99025EHG 13293.78779541  .00000996  00000-0  61512-3 0  1204
2 37438 099.0581 286.1565 0031634 110.7762 249.6556 14.07500465283274
0 FENGYUN 1C DEB
1 37438U 99025EHG 13295.20954264  .00000947  00000-0  58584-3 0  1212
2 37438 099.0605 287.5862 0032653 108.7043 251.7616 14.07502411283473
